{
  "norad_id": 63955,
  "name": "STARLINK-34170",
  "history": [
    {
      "epoch": "2026-03-28T15:50:26.634336Z",
      "apogee_km": 483.3146514160899,
      "perigee_km": 482.757112507702,
      "latitude_deg": -2.4345429490203796e-05,
      "longitude_deg": 5.741706064508166,
      "height_km": 482.5586663463029,
      "semi_major_axis_km": 6861.172881961896,
      "eccentricity": 4.063e-05,
      "inclination_deg": 42.9968,
      "raan_deg": 69.43,
      "arg_perigee_deg": 25.2537,
      "mean_anomaly_deg": 334.8334,
      "mean_motion_rev_day": 15.27584413
    }
  ]
}